[{"OBJECT_NAME":"BIOMASS","OBJECT_ID":"2025-090A","EPOCH":"2026-03-09T23:05:06.323136","MEAN_MOTION":14.67534568,"ECCENTRICITY":0.00013514,"INCLINATION":98.0739,"RA_OF_ASC_NODE":257.7072,"ARG_OF_PERICENTER":76.3512,"MEAN_ANOMALY":283.7843,"EPHEMERIS_TYPE":0,"CLASSIFICATION_TYPE":"U","NORAD_CAT_ID":63772,"ELEMENT_SET_NO":999,"REV_AT_EPOCH":4613,"BSTAR":8.7894818e-5,"MEAN_MOTION_DOT":4.5e-6,"MEAN_MOTION_DDOT":0},{"OBJECT_NAME":"SL-8 R\/B","OBJECT_ID":"1969-070B","EPOCH":"2026-03-09T14:48:34.657920","MEAN_MOTION":14.66578978,"ECCENTRICITY":0.0013718,"INCLINATION":74.0479,"RA_OF_ASC_NODE":128.5817,"ARG_OF_PERICENTER":359.2316,"MEAN_ANOMALY":0.883,"EPHEMERIS_TYPE":0,"CLASSIFICATION_TYPE":"U","NORAD_CAT_ID":4071,"ELEMENT_SET_NO":999,"REV_AT_EPOCH":414,"BSTAR":0.0001391,"MEAN_MOTION_DOT":7.42e-6,"MEAN_MOTION_DDOT":0}]
